STARLINK-5621           
1 55434U 23014AV  26068.52609347  .00001201  00000+0  10845-3 0  9993
2 55434  69.9991 104.8940 0003527 271.7777  88.2979 14.98333744171049
CENTAURI-8              
1 62714U 25009DK  26068.72637183  .00004445  00000+0  38891-3 0  9993
2 62714  97.7096 150.1876 0003020 109.5881 250.5667 14.97228330 62597
